{"type": "FeatureCollection", "features": [ {"type": "Feature", "properties": {"norad_id": 40534, "name": "GPS BIIF-9  (PRN 26)", "group": "gps-ops", "lat": 39.119169375363576, "lon": -5.1732585110817295, "alt_km": 20173.098585883738, "timestamp": "2025-12-03T06:58:43.496139+00:00", "meta": {"OBJECT_NAME": "GPS BIIF-9  (PRN 26)", "OBJECT_ID": "2015-013A", "EPOCH": "2025-12-01T02:55:38.238240", "MEAN_MOTION": 2.00563184, "ECCENTRICITY": 0.01065399, "INCLINATION": 53.1998, "RA_OF_ASC_NODE": 212.3715, "ARG_OF_PERICENTER": 38.192, "MEAN_ANOMALY": 322.6465, "EPHEMERIS_TYPE": 0, "CLASSIFICATION_TYPE": "U", "NORAD_CAT_ID": 40534, "ELEMENT_SET_NO": 999, "REV_AT_EPOCH": 7785, "BSTAR": 0, "MEAN_MOTION_DOT": 6.6e-07, "MEAN_MOTION_DDOT": 0}, "tle": {"line1": "1 40534U 15013A   25335.12197035  .00000066  00000+0  00000+0 0  9992", "line2": "2 40534  53.1998 212.3715 0106539  38.1920 322.6465  2.00563184 77855"}}, "geometry": {"type": "Point", "coordinates": [-5.1732585110817295, 39.119169375363576]}}, {"type": "Feature", "properties": {"norad_id": 40730, "name": "GPS BIIF-10 (PRN 08)", "group": "gps-ops", "lat": 7.843309369938972, "lon": -79.14909091277536, "alt_km": 19900.800541364817, "timestamp": "2025-12-03T06:58:43.496153+00:00", "meta": {"OBJECT_NAME": "GPS BIIF-10 (PRN 08)", "OBJECT_ID": "2015-033A", "EPOCH": "2025-12-02T06:43:54.109632", "MEAN_MOTION": 2.00566042, "ECCENTRICITY": 0.01103091, "INCLINATION": 54.1399, "RA_OF_ASC_NODE": 275.2033, "ARG_OF_PERICENTER": 26.5495, "MEAN_ANOMALY": 334.0087, "EPHEMERIS_TYPE": 0, "CLASSIFICATION_TYPE": "U", "NORAD_CAT_ID": 40730, "ELEMENT_SET_NO": 999, "REV_AT_EPOCH": 7604, "BSTAR": 0, "MEAN_MOTION_DOT": -3.8e-07, "MEAN_MOTION_DDOT": 0}, "tle": {"line1": "1 40730U 15033A   25336.28048738 -.00000038  00000+0  00000+0 0  9995", "line2": "2 40730  54.1399 275.2033 0110309  26.5495 334.0087  2.00566042 76041"}}, "geometry": {"type": "Point", "coordinates": [-79.14909091277536, 7.843309369938972]}}, {"type": "Feature", "properties": {"norad_id": 41019, "name": "GPS BIIF-11 (PRN 10)", "group": "gps-ops", "lat": -27.188604324044732, "lon": 18.772905310519363, "alt_km": 20219.759335282743, "timestamp": "2025-12-03T06:58:43.496165+00:00", "meta": {"OBJECT_NAME": "GPS BIIF-11 (PRN 10)", "OBJECT_ID": "2015-062A", "EPOCH": "2025-12-01T08:13:28.844544", "MEAN_MOTION": 2.00567003, "ECCENTRICITY": 0.01104814, "INCLINATION": 56.824, "RA_OF_ASC_NODE": 38.4433, "ARG_OF_PERICENTER": 229.6355, "MEAN_ANOMALY": 129.443, "EPHEMERIS_TYPE": 0, "CLASSIFICATION_TYPE": "U", "NORAD_CAT_ID": 41019, "ELEMENT_SET_NO": 999, "REV_AT_EPOCH": 7386, "BSTAR": 0, "MEAN_MOTION_DOT": -6.4e-07, "MEAN_MOTION_DDOT": 0}, "tle": {"line1": "1 41019U 15062A   25335.34269496 -.00000064  00000+0  00000+0 0  9999", "line2": "2 41019  56.8240  38.4433 0110481 229.6355 129.4430  2.00567003 73864"}}, "geometry": {"type": "Point", "coordinates": [18.772905310519363, -27.188604324044732]}}, {"type": "Feature", "properties": {"norad_id": 41328, "name": "GPS BIIF-12 (PRN 32)", "group": "gps-ops", "lat": -55.269152606718336, "lon": 1.4410205500450148, "alt_km": 19965.047965564256, "timestamp": "2025-12-03T06:58:43.496177+00:00", "meta": {"OBJECT_NAME": "GPS BIIF-12 (PRN 32)", "OBJECT_ID": "2016-007A", "EPOCH": "2025-11-30T22:13:59.162880", "MEAN_MOTION": 2.00561199, "ECCENTRICITY": 0.00916001, "INCLINATION": 55.3993, "RA_OF_ASC_NODE": 97.326, "ARG_OF_PERICENTER": 243.286, "MEAN_ANOMALY": 115.7578, "EPHEMERIS_TYPE": 0, "CLASSIFICATION_TYPE": "U", "NORAD_CAT_ID": 41328, "ELEMENT_SET_NO": 999, "REV_AT_EPOCH": 7186, "BSTAR": 0, "MEAN_MOTION_DOT": 2.3e-07, "MEAN_MOTION_DDOT": 0}, "tle": {"line1": "1 41328U 16007A   25334.92637920  .00000023  00000+0  00000+0 0  9990", "line2": "2 41328  55.3993  97.3260 0091600 243.2860 115.7578  2.00561199 71861"}}, "geometry": {"type": "Point", "coordinates": [1.4410205500450148, -55.269152606718336]}}, {"type": "Feature", "properties": {"norad_id": 43873, "name": "GPS BIII-1  (PRN 04)", "group": "gps-ops", "lat": 15.589050036521153, "lon": -91.12373604721128, "alt_km": 20098.83374611046, "timestamp": "2025-12-03T06:58:43.496189+00:00", "meta": {"OBJECT_NAME": "GPS BIII-1  (PRN 04)", "OBJECT_ID": "2018-109A", "EPOCH": "2025-12-02T13:53:48.865056", "MEAN_MOTION": 2.00553145, "ECCENTRICITY": 0.00371805, "INCLINATION": 55.5613, "RA_OF_ASC_NODE": 99.9484, "ARG_OF_PERICENTER": 194.5324, "MEAN_ANOMALY": 172.7169, "EPHEMERIS_TYPE": 0, "CLASSIFICATION_TYPE": "U", "NORAD_CAT_ID": 43873, "ELEMENT_SET_NO": 999, "REV_AT_EPOCH": 5113, "BSTAR": 0, "MEAN_MOTION_DOT": 1e-07, "MEAN_MOTION_DDOT": 0}, "tle": {"line1": "1 43873U 18109A   25336.57903779  .00000010  00000+0  00000+0 0  9999", "line2": "2 43873  55.5613  99.9484 0037180 194.5324 172.7169  2.00553145 51130"}}, "geometry": {"type": "Point", "coordinates": [-91.12373604721128, 15.589050036521153]}}, {"type": "Feature", "properties": {"norad_id": 44506, "name": "GPS BIII-2  (PRN 18)", "group": "gps-ops", "lat": 44.03293827452999, "lon": 20.180896956981385, "alt_km": 20295.943002301847, "timestamp": "2025-12-03T06:58:43.496202+00:00", "meta": {"OBJECT_NAME": "GPS BIII-2  (PRN 18)", "OBJECT_ID": "2019-056A", "EPOCH": "2025-12-02T10:49:28.764768", "MEAN_MOTION": 2.00565569, "ECCENTRICITY": 0.00578163, "INCLINATION": 55.7251, "RA_OF_ASC_NODE": 338.9617, "ARG_OF_PERICENTER": 198.402, "MEAN_ANOMALY": 332.9603, "EPHEMERIS_TYPE": 0, "CLASSIFICATION_TYPE": "U", "NORAD_CAT_ID": 44506, "ELEMENT_SET_NO": 999, "REV_AT_EPOCH": 4612, "BSTAR": 0, "MEAN_MOTION_DOT": -6.1e-07, "MEAN_MOTION_DDOT": 0}, "tle": {"line1": "1 44506U 19056A   25336.45102737 -.00000061  00000+0  00000+0 0  9994", "line2": "2 44506  55.7251 338.9617 0057816 198.4020 332.9603  2.00565569 46121"}}, "geometry": {"type": "Point", "coordinates": [20.180896956981385, 44.03293827452999]}}, {"type": "Feature", "properties": {"norad_id": 45854, "name": "GPS BIII-3  (PRN 23)", "group": "gps-ops", "lat": 1.781357006195271, "lon": 37.74853187385392, "alt_km": 20332.150249505994, "timestamp": "2025-12-03T06:58:43.496213+00:00", "meta": {"OBJECT_NAME": "GPS BIII-3  (PRN 23)", "OBJECT_ID": "2020-041A", "EPOCH": "2025-12-02T12:43:29.981568", "MEAN_MOTION": 2.00561721, "ECCENTRICITY": 0.0060247, "INCLINATION": 56.5397, "RA_OF_ASC_NODE": 36.584, "ARG_OF_PERICENTER": 202.9657, "MEAN_ANOMALY": 329.812, "EPHEMERIS_TYPE": 0, "CLASSIFICATION_TYPE": "U", "NORAD_CAT_ID": 45854, "ELEMENT_SET_NO": 999, "REV_AT_EPOCH": 4009, "BSTAR": 0, "MEAN_MOTION_DOT": -6.6e-07, "MEAN_MOTION_DDOT": 0}, "tle": {"line1": "1 45854U 20041A   25336.53020812 -.00000066  00000+0  00000+0 0  9994", "line2": "2 45854  56.5397  36.5840 0060247 202.9657 329.8120  2.00561721 40091"}}, "geometry": {"type": "Point", "coordinates": [37.74853187385392, 1.781357006195271]}}, {"type": "Feature", "properties": {"norad_id": 46826, "name": "GPS BIII-4  (PRN 14)", "group": "gps-ops", "lat": -21.441808816719654, "lon": -157.83112437543235, "alt_km": 20291.656844287707, "timestamp": "2025-12-03T06:58:43.496225+00:00", "meta": {"OBJECT_NAME": "GPS BIII-4  (PRN 14)", "OBJECT_ID": "2020-078A", "EPOCH": "2025-11-12T03:01:29.190720", "MEAN_MOTION": 2.00567032, "ECCENTRICITY": 0.0063911, "INCLINATION": 54.0223, "RA_OF_ASC_NODE": 219.5836, "ARG_OF_PERICENTER": 203.4986, "MEAN_ANOMALY": 326.7754, "EPHEMERIS_TYPE": 0, "CLASSIFICATION_TYPE": "U", "NORAD_CAT_ID": 46826, "ELEMENT_SET_NO": 999, "REV_AT_EPOCH": 3715, "BSTAR": 0, "MEAN_MOTION_DOT": -3.4e-07, "MEAN_MOTION_DDOT": 0}, "tle": {"line1": "1 46826U 20078A   25316.12603230 -.00000034  00000+0  00000+0 0  9993", "line2": "2 46826  54.0223 219.5836 0063911 203.4986 326.7754  2.00567032 37155"}}, "geometry": {"type": "Point", "coordinates": [-157.83112437543235, -21.441808816719654]}}, {"type": "Feature", "properties": {"norad_id": 48859, "name": "GPS BIII-5  (PRN 11)", "group": "gps-ops", "lat": 17.711102661643462, "lon": 147.5311868024546, "alt_km": 20163.756489294996, "timestamp": "2025-12-03T06:58:43.496237+00:00", "meta": {"OBJECT_NAME": "GPS BIII-5  (PRN 11)", "OBJECT_ID": "2021-054A", "EPOCH": "2025-11-30T17:12:22.002912", "MEAN_MOTION": 2.00553932, "ECCENTRICITY": 0.0024653, "INCLINATION": 55.2606, "RA_OF_ASC_NODE": 340.4377, "ARG_OF_PERICENTER": 232.9477, "MEAN_ANOMALY": 227.2059, "EPHEMERIS_TYPE": 0, "CLASSIFICATION_TYPE": "U", "NORAD_CAT_ID": 48859, "ELEMENT_SET_NO": 999, "REV_AT_EPOCH": 3277, "BSTAR": 0, "MEAN_MOTION_DOT": -5.5e-07, "MEAN_MOTION_DDOT": 0}, "tle": {"line1": "1 48859U 21054A   25334.71692133 -.00000055  00000+0  00000+0 0  9994", "line2": "2 48859  55.2606 340.4377 0024653 232.9477 227.2059  2.00553932 32777"}}, "geometry": {"type": "Point", "coordinates": [147.5311868024546, 17.711102661643462]}}, {"type": "Feature", "properties": {"norad_id": 55268, "name": "GPS BIII-6  (PRN 28)", "group": "gps-ops", "lat": -16.93030223444154, "lon": -11.515829055645247, "alt_km": 20193.81463596219, "timestamp": "2025-12-03T06:58:43.496250+00:00", "meta": {"OBJECT_NAME": "GPS BIII-6  (PRN 28)", "OBJECT_ID": "2023-009A", "EPOCH": "2025-12-02T00:29:31.953408", "MEAN_MOTION": 2.00556444, "ECCENTRICITY": 0.00034715, "INCLINATION": 55.1057, "RA_OF_ASC_NODE": 156.2669, "ARG_OF_PERICENTER": 359.2649, "MEAN_ANOMALY": 4.3682, "EPHEMERIS_TYPE": 0, "CLASSIFICATION_TYPE": "U", "NORAD_CAT_ID": 55268, "ELEMENT_SET_NO": 999, "REV_AT_EPOCH": 2129, "BSTAR": 0, "MEAN_MOTION_DOT": 1.22e-06, "MEAN_MOTION_DDOT": 0}, "tle": {"line1": "1 55268U 23009A   25336.02050872  .00000122  00000+0  00000+0 0  9996", "line2": "2 55268  55.1057 156.2669 0003471 359.2649   4.3682  2.00556444 21296"}}, "geometry": {"type": "Point", "coordinates": [-11.515829055645247, -16.93030223444154]}}]}